H1 CPF  1  DLR 2021 09 20 10  7632 technosat            
H2  1704205 6203    42829 2021 09 20 00 00 00 2021 09 27 00 00 00    60 1 1  0 0 0
H9
10 0 59479      0.000000  0      -3999956.874       4263050.441      -3825681.679
10 0 59479     60.000000  0      -4088307.142       4498574.685      -3443689.883
10 0 59479    120.000000  0      -4157562.185       4715956.802      -3047177.004
10 0 59479    180.000000  0      -4207589.491       4914112.239      -2637810.415
10 0 59479    240.000000  0      -4238346.077       5092035.621      -2217312.960
10 0 59479    300.000000  0      -4249878.146       5248805.970      -1787455.810
10 0 59479    360.000000  0      -4242320.348       5383591.595      -1350051.022
10 0 59479    420.000000  0      -4215894.571       5495654.604       -906943.838
10 0 59479    480.000000  0      -4170908.238       5584354.934       -460004.727
10 0 59479    540.000000  0      -4107752.263       5649153.809        -11121.475
10 0 59479    600.000000  0      -4026898.661       5689616.959        437808.865
10 0 59479    660.000000  0      -3928897.668       5705417.307        884888.198
10 0 59479    720.000000  0      -3814374.554       5696337.097       1328225.592
10 0 59479    780.000000  0      -3684026.062       5662269.539       1765945.493
10 0 59479    840.000000  0      -3538616.431       5603219.862       2196195.886
10 0 59479    900.000000  0      -3378973.100       5519305.792       2617156.250
10 0 59479    960.000000  0      -3205982.168       5410757.517       3027045.352
10 0 59479   1020.000000  0      -3020583.630       5277917.135       3424128.807
10 0 59479   1080.000000  0      -2823766.393       5121237.642       3806726.481
10 0 59479   1140.000000  0      -2616563.064       4941281.340       4173219.651
10 0 59479   1200.000000  0      -2400044.589       4738717.726       4522057.828
10 0 59479   1260.000000  0      -2175314.788       4514320.908       4851765.289
10 0 59479   1320.000000  0      -1943504.776       4268966.533       5160947.304
10 0 59479   1380.000000  0      -1705767.258       4003628.223       5448295.969
10 0 59479   1440.000000  0      -1463270.806       3719373.557       5712595.590
10 0 59479   1500.000000  0      -1217194.166       3417359.664       5952727.689
10 0 59479   1560.000000  0       -968720.550       3098828.401       6167675.614
10 0 59479   1620.000000  0       -719031.990       2765101.115       6356528.662
10 0 59479   1680.000000  0       -469303.801       2417573.162       6518485.752
10 0 59479   1740.000000  0       -220699.103       2057708.109       6652858.764
10 0 59479   1800.000000  0         25636.580       1687031.527       6759075.428
10 0 59479   1860.000000  0        268580.578       1307124.486       6836681.652
10 0 59479   1920.000000  0        507038.167        919616.862       6885343.370
10 0 59479   1980.000000  0        739947.465        526180.434       6904847.960
10 0 59479   2040.000000  0        966284.141        128521.761       6895105.252
10 0 59479   2100.000000  0       1185065.926       -271625.167       6856148.064
10 0 59479   2160.000000  0       1395356.892       -672506.496       6788132.249
10 0 59479   2220.000000  0       1596271.510      -1072356.179       6691336.154
10 0 59479   2280.000000  0       1786978.414      -1469403.680       6566159.672
10 0 59479   2340.000000  0       1966703.918      -1861881.851       6413122.880
10 0 59479   2400.000000  0       2134735.254      -2248034.885       6232864.090
10 0 59479   2460.000000  0       2290423.502      -2626126.232       6026137.427
10 0 59479   2520.000000  0       2433186.230      -2994446.551       5793809.929
10 0 59479   2580.000000  0       2562509.754      -3351321.588       5536858.097
10 0 59479   2640.000000  0       2677951.067      -3695119.942       5256364.011
10 0 59479   2700.000000  0       2779139.433      -4024260.718       4953511.022
10 0 59479   2760.000000  0       2865777.662      -4337221.083       4629578.978
10 0 59479   2820.000000  0       2937643.015      -4632543.638       4285938.908
10 0 59479   2880.000000  0       2994587.706      -4908843.463       3924047.240
10 0 59479   2940.000000  0       3036539.007      -5164814.898       3545439.713
10 0 59479   3000.000000  0       3063499.018      -5399238.076       3151724.871
10 0 59479   3060.000000  0       3075544.031      -5610985.074       2744577.107
10 0 59479   3120.000000  0       3072823.464      -5799025.596       2325729.382
10 0 59479   3180.000000  0       3055558.420      -5962432.243       1896965.668
10 0 59479   3240.000000  0       3024039.868      -6100385.247       1460113.136
10 0 59479   3300.000000  0       2978626.571      -6212176.764       1017034.174
10 0 59479   3360.000000  0       2919742.608      -6297214.633        569618.143
10 0 59479   3420.000000  0       2847874.562      -6355025.626        119773.050
10 0 59479   3480.000000  0       2763568.356      -6385258.149       -330583.038
10 0 59479   3540.000000  0       2667425.770      -6387684.153       -779530.628
10 0 59479   3600.000000  0       2560100.686      -6362200.427      -1225157.334
10 0 59479   3660.000000  0       2442295.068      -6308829.319      -1665566.300
10 0 59479   3720.000000  0       2314754.749      -6227718.880      -2098884.545
10 0 59479   3780.000000  0       2178265.103      -6119142.435      -2523271.251
10 0 59479   3840.000000  0       2033646.314      -5983497.421      -2936925.988
10 0 59479   3900.000000  0       1881748.522      -5821303.460      -3338096.420
10 0 59479   3960.000000  0       1723447.062      -5633199.998      -3725085.754
10 0 59479   4020.000000  0       1559637.605      -5419943.378      -4096259.981
10 0 59479   4080.000000  0       1391231.222      -5182403.343      -4450054.718
10 0 59479   4140.000000  0       1219149.446      -4921559.074      -4784981.672
10 0 59479   4200.000000  0       1044319.343      -4638494.748      -5099634.736
10 0 59479   4260.000000  0        867668.645      -4334394.646      -5392695.683
10 0 59479   4320.000000  0        690120.930      -4010537.811      -5662939.445
10 0 59479   4380.000000  0        512590.906      -3668292.311      -5909238.906
10 0 59479   4440.000000  0        335979.822      -3309109.168      -6130569.247
10 0 59479   4500.000000  0        161171.012      -2934515.967      -6326011.848
10 0 59479   4560.000000  0        -10974.386      -2546110.176      -6494757.719
10 0 59479   4620.000000  0       -179621.553      -2145552.197      -6636110.483
10 0 59479   4680.000000  0       -343965.897      -1734558.208      -6749488.873
10 0 59479   4740.000000  0       -503236.744      -1314892.816      -6834428.825
10 0 59479   4800.000000  0       -656700.811       -888361.481      -6890585.097
10 0 59479   4860.000000  0       -803665.450       -456802.811      -6917732.407
10 0 59479   4920.000000  0       -943481.674        -22080.751      -6915766.067
10 0 59479   4980.000000  0      -1075546.930        413923.250      -6884702.203
10 0 59479   5040.000000  0      -1199307.605        849318.178      -6824677.621
10 0 59479   5100.000000  0      -1314261.259       1282211.534      -6735949.151
10 0 59479   5160.000000  0      -1419958.582       1710717.325      -6618892.496
10 0 59479   5220.000000  0      -1516005.072       2132964.014      -6474000.771
10 0 59479   5280.000000  0      -1602062.457       2547102.553      -6301882.662
10 0 59479   5340.000000  0      -1677849.873       2951314.414      -6103260.046
10 0 59479   5400.000000  0      -1743144.693       3343819.459      -5878965.114
10 0 59479   5460.000000  0      -1797783.059       3722883.662      -5629937.158
10 0 59479   5520.000000  0      -1841660.165       4086826.774      -5357218.953
10 0 59479   5580.000000  0      -1874730.246       4434029.821      -5061952.662
10 0 59479   5640.000000  0      -1897006.269       4762942.396      -4745375.311
10 0 59479   5700.000000  0      -1908559.322       5072089.682      -4408813.828
10 0 59479   5760.000000  0      -1909517.693       5360079.190      -4053679.699
10 0 59479   5820.000000  0      -1900065.665       5625607.165      -3681463.270
10 0 59479   5880.000000  0      -1880442.003       5867464.652      -3293727.704
10 0 59479   5940.000000  0      -1850938.174       6084543.219      -2892102.622
10 0 59479   6000.000000  0      -1811896.325       6275840.290      -2478277.402
10 0 59479   6060.000000  0      -1763706.996       6440464.066      -2053994.133
10 0 59479   6120.000000  0      -1706806.542       6577637.885      -1621040.274
10 0 59479   6180.000000  0      -1641674.335       6686704.038      -1181241.173
10 0 59479   6240.000000  0      -1568829.763       6767127.172       -736452.414
10 0 59479   6300.000000  0      -1488829.014       6818497.143       -288551.919
10 0 59479   6360.000000  0      -1402261.623       6840531.320        160568.071
10 0 59479   6420.000000  0      -1309746.890       6833076.302        609009.221
10 0 59479   6480.000000  0      -1211930.150       6796108.876       1054875.388
10 0 59479   6540.000000  0      -1109478.905       6729736.330       1496280.844
10 0 59479   6600.000000  0      -1003078.834       6634196.119       1931358.407
10 0 59479   6660.000000  0       -893429.741       6509854.960       2358267.422
10 0 59479   6720.000000  0       -781241.464       6357207.367       2775201.625
10 0 59479   6780.000000  0       -667229.761       6176873.604       3180396.884
10 0 59479   6840.000000  0       -552112.168       5969596.996       3572138.703
10 0 59479   6900.000000  0       -436603.942       5736240.825       3948769.450
10 0 59479   6960.000000  0       -321414.045       5477784.685       4308695.593
10 0 59479   7020.000000  0       -207241.109       5195320.001       4650394.616
10 0 59479   7080.000000  0        -94769.468       4890044.978       4972421.313
10 0 59479   7140.000000  0         15334.652       4563259.345       5273413.565
99
